CCSDS_OMM_VERS = 2.0
CREATION_DATE  = 
ORIGINATOR     = 

OBJECT_NAME    = SL-14 R/B
OBJECT_ID      = 1991-042B
CENTER_NAME    = EARTH
REF_FRAME      = TEME
TIME_SYSTEM    = UTC
MEAN_ELEMENT_THEORY = SGP/SGP4

EPOCH          = 2026-01-04T19:25:44.294016
MEAN_MOTION    = 14.81765361
ECCENTRICITY   = .0018568
INCLINATION    = 82.4937
RA_OF_ASC_NODE = 280.0923
ARG_OF_PERICENTER = 90.7553
MEAN_ANOMALY   = 269.5789

EPHEMERIS_TYPE = 0
CLASSIFICATION_TYPE = U
NORAD_CAT_ID   = 21423
ELEMENT_SET_NO = 999
REV_AT_EPOCH   = 84361
BSTAR          = .87985E-4
MEAN_MOTION_DOT = .719E-5
MEAN_MOTION_DDOT = 0

CCSDS_OMM_VERS = 2.0
CREATION_DATE  = 
ORIGINATOR     = 

OBJECT_NAME    = ERS-1
OBJECT_ID      = 1991-050A
CENTER_NAME    = EARTH
REF_FRAME      = TEME
TIME_SYSTEM    = UTC
MEAN_ELEMENT_THEORY = SGP/SGP4

EPOCH          = 2026-01-04T14:34:15.879936
MEAN_MOTION    = 14.39387546
ECCENTRICITY   = .0032538
INCLINATION    = 98.7896
RA_OF_ASC_NODE = 21.2333
ARG_OF_PERICENTER = 33.9997
MEAN_ANOMALY   = 326.3266

EPHEMERIS_TYPE = 0
CLASSIFICATION_TYPE = U
NORAD_CAT_ID   = 21574
ELEMENT_SET_NO = 999
REV_AT_EPOCH   = 80651
BSTAR          = .21168E-3
MEAN_MOTION_DOT = .616E-5
MEAN_MOTION_DDOT = 0

CCSDS_OMM_VERS = 2.0
CREATION_DATE  = 
ORIGINATOR     = 

OBJECT_NAME    = ARIANE 40 R/B
OBJECT_ID      = 1991-050F
CENTER_NAME    = EARTH
REF_FRAME      = TEME
TIME_SYSTEM    = UTC
MEAN_ELEMENT_THEORY = SGP/SGP4

EPOCH          = 2026-01-04T17:47:03.216480
MEAN_MOTION    = 14.42836526
ECCENTRICITY   = .0002007
INCLINATION    = 98.2130
RA_OF_ASC_NODE = 59.3379
ARG_OF_PERICENTER = 265.0157
MEAN_ANOMALY   = 95.0804

EPHEMERIS_TYPE = 0
CLASSIFICATION_TYPE = U
NORAD_CAT_ID   = 21610
ELEMENT_SET_NO = 999
REV_AT_EPOCH   = 80977
BSTAR          = .18944E-3
MEAN_MOTION_DOT = .59E-5
MEAN_MOTION_DDOT = 0

CCSDS_OMM_VERS = 2.0
CREATION_DATE  = 
ORIGINATOR     = 

OBJECT_NAME    = INTERCOSMOS 25
OBJECT_ID      = 1991-086A
CENTER_NAME    = EARTH
REF_FRAME      = TEME
TIME_SYSTEM    = UTC
MEAN_ELEMENT_THEORY = SGP/SGP4

EPOCH          = 2026-01-04T16:04:48.889920
MEAN_MOTION    = 12.11824737
ECCENTRICITY   = .1485925
INCLINATION    = 82.6081
RA_OF_ASC_NODE = 348.7040
ARG_OF_PERICENTER = 254.9382
MEAN_ANOMALY   = 88.3037

EPHEMERIS_TYPE = 0
CLASSIFICATION_TYPE = U
NORAD_CAT_ID   = 21819
ELEMENT_SET_NO = 999
REV_AT_EPOCH   = 48893
BSTAR          = .366E-3
MEAN_MOTION_DOT = .1837E-4
MEAN_MOTION_DDOT = 0

CCSDS_OMM_VERS = 2.0
CREATION_DATE  = 
ORIGINATOR     = 

OBJECT_NAME    = SL-8 R/B
OBJECT_ID      = 1992-008B
CENTER_NAME    = EARTH
REF_FRAME      = TEME
TIME_SYSTEM    = UTC
MEAN_ELEMENT_THEORY = SGP/SGP4

EPOCH          = 2026-01-04T20:59:27.759840
MEAN_MOTION    = 13.75964589
ECCENTRICITY   = .0033837
INCLINATION    = 82.9283
RA_OF_ASC_NODE = 315.2394
ARG_OF_PERICENTER = 314.6860
MEAN_ANOMALY   = 98.6305

EPHEMERIS_TYPE = 0
CLASSIFICATION_TYPE = U
NORAD_CAT_ID   = 21876
ELEMENT_SET_NO = 999
REV_AT_EPOCH   = 70064
BSTAR          = .12459E-3
MEAN_MOTION_DOT = .136E-5
MEAN_MOTION_DDOT = 0

CCSDS_OMM_VERS = 2.0
CREATION_DATE  = 
ORIGINATOR     = 

OBJECT_NAME    = SL-8 R/B
OBJECT_ID      = 1992-020B
CENTER_NAME    = EARTH
REF_FRAME      = TEME
TIME_SYSTEM    = UTC
MEAN_ELEMENT_THEORY = SGP/SGP4

EPOCH          = 2026-01-04T16:24:11.363040
MEAN_MOTION    = 13.75534455
ECCENTRICITY   = .0030096
INCLINATION    = 82.9291
RA_OF_ASC_NODE = 201.2793
ARG_OF_PERICENTER = 115.4952
MEAN_ANOMALY   = 315.7325

EPHEMERIS_TYPE = 0
CLASSIFICATION_TYPE = U
NORAD_CAT_ID   = 21938
ELEMENT_SET_NO = 999
REV_AT_EPOCH   = 69233
BSTAR          = .18905E-3
MEAN_MOTION_DOT = .198E-5
MEAN_MOTION_DDOT = 0

CCSDS_OMM_VERS = 2.0
CREATION_DATE  = 
ORIGINATOR     = 

OBJECT_NAME    = USA 81
OBJECT_ID      = 1992-023A
CENTER_NAME    = EARTH
REF_FRAME      = TEME
TIME_SYSTEM    = UTC
MEAN_ELEMENT_THEORY = SGP/SGP4

EPOCH          = 2026-01-04T19:23:50.806752
MEAN_MOTION    = 14.32338129
ECCENTRICITY   = .0001216
INCLINATION    = 85.0091
RA_OF_ASC_NODE = 168.2720
ARG_OF_PERICENTER = 111.6336
MEAN_ANOMALY   = 248.4986

EPHEMERIS_TYPE = 0
CLASSIFICATION_TYPE = U
NORAD_CAT_ID   = 21949
ELEMENT_SET_NO = 999
REV_AT_EPOCH   = 8564
BSTAR          = .11262E-3
MEAN_MOTION_DOT = .324E-5
MEAN_MOTION_DDOT = 0

CCSDS_OMM_VERS = 2.0
CREATION_DATE  = 
ORIGINATOR     = 

OBJECT_NAME    = COSMOS 2219
OBJECT_ID      = 1992-076A
CENTER_NAME    = EARTH
REF_FRAME      = TEME
TIME_SYSTEM    = UTC
MEAN_ELEMENT_THEORY = SGP/SGP4

EPOCH          = 2026-01-04T20:33:05.382720
MEAN_MOTION    = 14.14077743
ECCENTRICITY   = .0020167
INCLINATION    = 71.0606
RA_OF_ASC_NODE = 151.5096
ARG_OF_PERICENTER = 294.9774
MEAN_ANOMALY   = 64.9254

EPHEMERIS_TYPE = 0
CLASSIFICATION_TYPE = U
NORAD_CAT_ID   = 22219
ELEMENT_SET_NO = 999
REV_AT_EPOCH   = 70935
BSTAR          = .18826E-3
MEAN_MOTION_DOT = .312E-5
MEAN_MOTION_DDOT = 0

CCSDS_OMM_VERS = 2.0
CREATION_DATE  = 
ORIGINATOR     = 

OBJECT_NAME    = SL-16 R/B
OBJECT_ID      = 1992-076B
CENTER_NAME    = EARTH
REF_FRAME      = TEME
TIME_SYSTEM    = UTC
MEAN_ELEMENT_THEORY = SGP/SGP4

EPOCH          = 2026-01-04T21:00:36.725184
MEAN_MOTION    = 14.16845434
ECCENTRICITY   = .0013668
INCLINATION    = 71.0011
RA_OF_ASC_NODE = 322.7962
ARG_OF_PERICENTER = 202.4344
MEAN_ANOMALY   = 225.2272

EPHEMERIS_TYPE = 0
CLASSIFICATION_TYPE = U
NORAD_CAT_ID   = 22220
ELEMENT_SET_NO = 999
REV_AT_EPOCH   = 71279
BSTAR          = .10602E-4
MEAN_MOTION_DOT = -.27E-6
MEAN_MOTION_DDOT = 0

CCSDS_OMM_VERS = 2.0
CREATION_DATE  = 
ORIGINATOR     = 

OBJECT_NAME    = COSMOS 2221
OBJECT_ID      = 1992-080A
CENTER_NAME    = EARTH
REF_FRAME      = TEME
TIME_SYSTEM    = UTC
MEAN_ELEMENT_THEORY = SGP/SGP4

EPOCH          = 2026-01-04T10:16:54.879744
MEAN_MOTION    = 14.95879574
ECCENTRICITY   = .00159461
INCLINATION    = 82.5050
RA_OF_ASC_NODE = 340.6061
ARG_OF_PERICENTER = 52.9737
MEAN_ANOMALY   = 307.2941

EPHEMERIS_TYPE = 0
CLASSIFICATION_TYPE = U
NORAD_CAT_ID   = 22236
ELEMENT_SET_NO = 999
REV_AT_EPOCH   = 77118
BSTAR          = .27391747E-3
MEAN_MOTION_DOT = .3095E-4
MEAN_MOTION_DDOT = 0

CCSDS_OMM_VERS = 2.0
CREATION_DATE  = 
ORIGINATOR     = 

OBJECT_NAME    = SL-16 R/B
OBJECT_ID      = 1992-093B
CENTER_NAME    = EARTH
REF_FRAME      = TEME
TIME_SYSTEM    = UTC
MEAN_ELEMENT_THEORY = SGP/SGP4

EPOCH          = 2026-01-04T18:47:12.680160
MEAN_MOTION    = 14.15434056
ECCENTRICITY   = .0003128
INCLINATION    = 71.0211
RA_OF_ASC_NODE = 138.4241
ARG_OF_PERICENTER = 9.8387
MEAN_ANOMALY   = 350.2796

EPHEMERIS_TYPE = 0
CLASSIFICATION_TYPE = U
NORAD_CAT_ID   = 22285
ELEMENT_SET_NO = 999
REV_AT_EPOCH   = 70411
BSTAR          = -.30041E-4
MEAN_MOTION_DOT = -.106E-5
MEAN_MOTION_DDOT = 0

CCSDS_OMM_VERS = 2.0
CREATION_DATE  = 
ORIGINATOR     = 

OBJECT_NAME    = COSMOS 2228
OBJECT_ID      = 1992-094A
CENTER_NAME    = EARTH
REF_FRAME      = TEME
TIME_SYSTEM    = UTC
MEAN_ELEMENT_THEORY = SGP/SGP4

EPOCH          = 2026-01-04T19:42:11.998080
MEAN_MOTION    = 14.96864752
ECCENTRICITY   = .0018617
INCLINATION    = 82.5199
RA_OF_ASC_NODE = 298.4498
ARG_OF_PERICENTER = 151.7396
MEAN_ANOMALY   = 208.4841

EPHEMERIS_TYPE = 0
CLASSIFICATION_TYPE = U
NORAD_CAT_ID   = 22286
ELEMENT_SET_NO = 999
REV_AT_EPOCH   = 76650
BSTAR          = .33872E-3
MEAN_MOTION_DOT = .3922E-4
MEAN_MOTION_DDOT = 0

