SL-14 R/B               
1 21423U 91042B   26004.80954044  .00000719  00000+0  87985-4 0  9991
2 21423  82.4937 280.0923 0018568  90.7553 269.5789 14.81765361843618
ERS-1                   
1 21574U 91050A   26004.60712824  .00000616  00000+0  21168-3 0  9999
2 21574  98.7896  21.2333 0032538  33.9997 326.3266 14.39387546806511
ARIANE 40 R/B           
1 21610U 91050F   26004.74100945  .00000590  00000+0  18944-3 0  9999
2 21610  98.2130  59.3379 0002007 265.0157  95.0804 14.42836526809774
INTERCOSMOS 25          
1 21819U 91086A   26004.67001030  .00001837  00000+0  36600-3 0  9990
2 21819  82.6081 348.7040 1485925 254.9382  88.3037 12.11824737488938
SL-8 R/B                
1 21876U 92008B   26004.87462685  .00000136  00000+0  12459-3 0  9994
2 21876  82.9283 315.2394 0033837 314.6860  98.6305 13.75964589700642
SL-8 R/B                
1 21938U 92020B   26004.68346485  .00000198  00000+0  18905-3 0  9995
2 21938  82.9291 201.2793 0030096 115.4952 315.7325 13.75534455692336
USA 81                  
1 21949U 92023A   26004.80822693  .00000324  00000+0  11262-3 0  9994
2 21949  85.0091 168.2720 0001216 111.6336 248.4986 14.32338129 85647
COSMOS 2219             
1 22219U 92076A   26004.85631230  .00000312  00000+0  18826-3 0  9993
2 22219  71.0606 151.5096 0020167 294.9774  64.9254 14.14077743709355
SL-16 R/B               
1 22220U 92076B   26004.87542506 -.00000027  00000+0  10602-4 0  9993
2 22220  71.0011 322.7962 0013668 202.4344 225.2272 14.16845434712792
COSMOS 2221             
1 22236U 92080A   26004.42841296  .00003095  00000+0  27392-3 0  9994
2 22236  82.5050 340.6061 0015946  52.9737 307.2941 14.95879574771184
SL-16 R/B               
1 22285U 92093B   26004.78278565 -.00000106  00000+0 -30041-4 0  9992
2 22285  71.0211 138.4241 0003128   9.8387 350.2796 14.15434056704113
COSMOS 2228             
1 22286U 92094A   26004.82097220  .00003922  00000+0  33872-3 0  9997
2 22286  82.5199 298.4498 0018617 151.7396 208.4841 14.96864752766508
